API VERSION: 1.0
API SOURCE: NASA/JPL Horizons API

*******************************************************************************
 Revised: September 30, 2021           Uranus                               799
 
 PHYSICAL DATA:
  Mass x10^24 (kg)      = 86.813          Density (g/cm^3)       =  1.271
  Equat. radius (1 bar) = 25559+-4 km     Polar radius (km)      = 24973+-20
  Vol. Mean Radius (km) = 25362+-12       Flattening             =  0.02293
  Geometric Albedo      = 0.51
  Sid. rot. period (III)= 17.24+-0.01 h   Sid. rot. rate (rad/s) = -0.000101237
  Mean solar day, h     =~17.24           Rocky core mass (Mc/M) =  0.0012        
  GM (km^3/s^2)         = 5793951.256     GM 1-sigma (km^3/s^2)  = +-4.3 
  Equ. grav, ge (m/s^2) =  8.87           Pol. grav, gp (m/s^2)  =   9.19+-0.02
  Visual magnitude V(1,0)= -7.11
  Vis. mag. (opposition)=  +5.52          Obliquity to orbit     = 97.77 deg
  Sidereal orbit period = 84.0120465 y    Sidereal orbit period  = 30685.4 d
  Mean daily motion     = 0.01176904 dg/d Mean orbit velocity    =  6.8 km/s
  Atmos. temp. (1 bar)  =  76+-2 K        Escape speed, km/s     =  21.3           
  Aroche(ice)/Rp        =  2.20           Hill's sphere rad., Rp = 2700
                                 Perihelion   Aphelion    Mean
  Solar Constant (W/m^2)         4.09         3.39        3.71
  Maximum Planetary IR (W/m^2)   0.72         0.55        0.63
  Minimum Planetary IR (W/m^2)   0.72         0.55        0.63
*******************************************************************************


*******************************************************************************
Ephemeris / WWW_USER Sat Oct  5 22:13:01 2024 Pasadena, USA      / Horizons
*******************************************************************************
Target body name: Uranus (799)                    {source: ura116}
Center body name: Earth (399)                     {source: ura116}
Center-site name: BODY CENTER
*******************************************************************************
Start time      : A.D. 2024-Mar-19 00:00:00.0000 TDB
Stop  time      : A.D. 2024-Apr-19 00:00:00.0000 TDB
Step-size       : 60 minutes
*******************************************************************************
Center geodetic : 0.0, 0.0, 0.0                   {E-lon(deg),Lat(deg),Alt(km)}
Center cylindric: 0.0, 0.0, 0.0                   {E-lon(deg),Dxy(km),Dz(km)}
Center radii    : 6378.137, 6378.137, 6356.752 km {Equator_a, b, pole_c}
Output units    : KM-S
Calendar mode   : Mixed Julian/Gregorian
Output type     : GEOMETRIC cartesian states
Output format   : 3 (position, velocity, LT, range, range-rate)
EOP file        : eop.241004.p241228
EOP coverage    : DATA-BASED 1962-JAN-20 TO 2024-OCT-04. PREDICTS-> 2024-DEC-27
Reference frame : Ecliptic of J2000.0
*******************************************************************************
JDTDB
   X     Y     Z
   VX    VY    VZ
   LT    RG    RR
*******************************************************************************
$$SOE
2460405.750000000 = A.D. 2024-Apr-05 06:00:00.0000 TDB 
 X = 1.935327048966832E+09 Y = 2.361293174021479E+09 Z =-1.460629570306349E+07
 VX=-1.297720514680159E+01 VY= 3.266628985115177E+01 VZ= 8.415482557196796E-02
 LT= 1.018403991358809E+04 RG= 3.053098358064682E+09 RR= 1.703787949636895E+01
2460405.791666667 = A.D. 2024-Apr-05 07:00:00.0000 TDB 
 X = 1.935280293793649E+09 Y = 2.361410762378595E+09 Z =-1.460599272265887E+07
 VX=-1.299789037723159E+01 VY= 3.266057258786441E+01 VZ= 8.416763568385832E-02
 LT= 1.018424441111013E+04 RG= 3.053159664879467E+09 RR= 1.702146066987993E+01
2460405.833333333 = A.D. 2024-Apr-05 08:00:00.0000 TDB 
 X = 1.935233464161093E+09 Y = 2.361528330125200E+09 Z =-1.460568969600511E+07
 VX=-1.301857145974370E+01 VY= 3.265483956564196E+01 VZ= 8.418051346813904E-02
 LT= 1.018444871142011E+04 RG= 3.053220912571568E+09 RR= 1.700503356218023E+01
2460405.875000000 = A.D. 2024-Apr-05 09:00:00.0000 TDB 
 X = 1.935186560084152E+09 Y = 2.361645877204543E+09 Z =-1.460538662292516E+07
 VX=-1.303924836491753E+01 VY= 3.264909077273709E+01 VZ= 8.419342180187606E-02
 LT= 1.018465281441866E+04 RG= 3.053282101111188E+09 RR= 1.698859818166481E+01
2460405.916666667 = A.D. 2024-Apr-05 10:00:00.0000 TDB 
 X = 1.935139581577912E+09 Y = 2.361763403559826E+09 Z =-1.460508350337720E+07
 VX=-1.305992106529807E+01 VY= 3.264332619762232E+01 VZ= 8.420632250675197E-02
 LT= 1.018485672000647E+04 RG= 3.053343230468558E+09 RR= 1.697215453565123E+01
2460405.958333333 = A.D. 2024-Apr-05 11:00:00.0000 TDB 
 X = 1.935092528657558E+09 Y = 2.361880909134213E+09 Z =-1.460478033745992E+07
 VX=-1.308058953512780E+01 VY= 3.263754582874582E+01 VZ= 8.421917581507543E-02
 LT= 1.018506042808433E+04 RG= 3.053404300613934E+09 RR= 1.695570263036343E+01
2460406.000000000 = A.D. 2024-Apr-05 12:00:00.0000 TDB 
 X = 1.935045401338364E+09 Y = 2.361998393870826E+09 Z =-1.460447712541807E+07
 VX=-1.310125375034549E+01 VY= 3.263174965444635E+01 VZ= 8.423194023445113E-02
 LT= 1.018526393855309E+04 RG= 3.053465311517591E+09 RR= 1.693924247086760E+01
2460406.041666667 = A.D. 2024-Apr-05 13:00:00.0000 TDB 
 X = 1.934998199635688E+09 Y = 2.362115857712744E+09 Z =-1.460417386764848E+07
 VX=-1.312191368877940E+01 VY= 3.262593766297035E+01 VZ= 8.424457262989193E-02
 LT= 1.018546725131365E+04 RG= 3.053526263149822E+09 RR= 1.692277406096284E+01
2460406.083333333 = A.D. 2024-Apr-05 14:00:00.0000 TDB 
 X = 1.934950923564961E+09 Y = 2.362233300603004E+09 Z =-1.460387056470704E+07
 VX=-1.314256933048050E+01 VY= 3.262010984255465E+01 VZ= 8.425702841491933E-02
 LT= 1.018567036626696E+04 RG= 3.053587155480933E+09 RR= 1.690629740303342E+01
2460406.125000000 = A.D. 2024-Apr-05 15:00:00.0000 TDB 
 X = 1.934903573141685E+09 Y = 2.362350722484602E+09 Z =-1.460356721731102E+07
 VX=-1.316322065815304E+01 VY= 3.261426618155186E+01 VZ= 8.426926179520322E-02
 LT= 1.018587328331398E+04 RG= 3.053647988481228E+09 RR= 1.688981249787215E+01
2460406.166666667 = A.D. 2024-Apr-05 16:00:00.0000 TDB 
 X = 1.934856148381416E+09 Y = 2.362468123300489E+09 Z =-1.460326382634485E+07
 VX=-1.318386765764639E+01 VY= 3.260840666858481E+01 VZ= 8.428122604379773E-02
 LT= 1.018607600235567E+04 RG= 3.053708762121019E+09 RR= 1.687331934448737E+01
2460406.208333333 = A.D. 2024-Apr-05 17:00:00.0000 TDB 
 X = 1.934808649299757E+09 Y = 2.362585502993580E+09 Z =-1.460296039286304E+07
 VX=-1.320451031847630E+01 VY= 3.260253129272229E+01 VZ= 8.429287380949901E-02
 LT= 1.018627852329296E+04 RG= 3.053769476370607E+09 RR= 1.685681793990776E+01
2460406.250000000 = A.D. 2024-Apr-05 18:00:00.0000 TDB 
 X = 1.934761075912338E+09 Y = 2.362702861506750E+09 Z =-1.460265691809058E+07
 VX=-1.322514863434574E+01 VY= 3.259664004367104E+01 VZ= 8.430415747185194E-02
 LT= 1.018648084602675E+04 RG= 3.053830131200280E+09 RR= 1.684030827899989E+01
2460406.291666667 = A.D. 2024-Apr-05 19:00:00.0000 TDB 
 X = 1.934713428234806E+09 Y = 2.362820198782835E+09 Z =-1.460235340342319E+07
 VX=-1.324578260363647E+01 VY= 3.259073291198052E+01 VZ= 8.431502956088188E-02
 LT= 1.018668297045785E+04 RG= 3.053890726580299E+09 RR= 1.682379035431406E+01
2460406.333333333 = A.D. 2024-Apr-05 20:00:00.0000 TDB 
 X = 1.934665706282804E+09 Y = 2.362937514764646E+09 Z =-1.460204985042775E+07
 VX=-1.326641222984346E+01 VY= 3.258480988925667E+01 VZ= 8.432544325843239E-02
 LT= 1.018688489648696E+04 RG= 3.053951262480902E+09 RR= 1.680726415597294E+01
2460406.375000000 = A.D. 2024-Apr-05 21:00:00.0000 TDB 
 X = 1.934617910071952E+09 Y = 2.363054809394960E+09 Z =-1.460174626083672E+07
 VX=-1.328703752192555E+01 VY= 3.257887096838011E+01 VZ= 8.433535299324291E-02
 LT= 1.018708662401467E+04 RG= 3.054011738872280E+09 RR= 1.679072967161654E+01
2460406.416666667 = A.D. 2024-Apr-05 22:00:00.0000 TDB 
 X = 1.934570039617829E+09 Y = 2.363172082616534E+09 Z =-1.460144263654339E+07
 VX=-1.330765849454701E+01 VY= 3.257291614372341E+01 VZ= 8.434471513458419E-02
 LT= 1.018728815294138E+04 RG= 3.054072155724577E+09 RR= 1.677418688641504E+01
2460406.458333333 = A.D. 2024-Apr-05 23:00:00.0000 TDB 
 X = 1.934522094935950E+09 Y = 2.363289334372106E+09 Z =-1.460113897959387E+07
 VX=-1.332827516818763E+01 VY= 3.256694541136038E+01 VZ= 8.435348878105664E-02
 LT= 1.018748948316732E+04 RG= 3.054132513007880E+09 RR= 1.675763578315840E+01
2460406.500000000 = A.D. 2024-Apr-06 00:00:00.0000 TDB 
 X = 1.934474076041746E+09 Y = 2.363406564604404E+09 Z =-1.460083529217553E+07
 VX=-1.334888756910189E+01 VY= 3.256095876925990E+01 VZ= 8.436163663278862E-02
 LT= 1.018769061459248E+04 RG= 3.054192810692211E+09 RR= 1.674107634242936E+01
2460406.541666667 = A.D. 2024-Apr-06 01:00:00.0000 TDB 
 X = 1.934425982950542E+09 Y = 2.363523773256153E+09 Z =-1.460053157660091E+07
 VX=-1.336949572911195E+01 VY= 3.255495621745581E+01 VZ= 8.436912592722656E-02
 LT= 1.018789154711662E+04 RG= 3.054253048747515E+09 RR= 1.672450854286274E+01
2460406.583333333 = A.D. 2024-Apr-06 02:00:00.0000 TDB 
 X = 1.934377815677541E+09 Y = 2.363640960270081E+09 Z =-1.460022783529174E+07
 VX=-1.339009968522420E+01 VY= 3.254893775818446E+01 VZ= 8.437592941212024E-02
 LT= 1.018809228063923E+04 RG= 3.054313227143661E+09 RR= 1.670793236149129E+01
2460406.625000000 = A.D. 2024-Apr-06 03:00:00.0000 TDB 
 X = 1.934329574237803E+09 Y = 2.363758125588928E+09 Z =-1.459992407075727E+07
 VX=-1.341069947906441E+01 VY= 3.254290339598150E+01 VZ= 8.438202632385483E-02
 LT= 1.018829281505951E+04 RG= 3.054373345850430E+09 RR= 1.669134777417491E+01
2460406.666666667 = A.D. 2024-Apr-06 04:00:00.0000 TDB 
 X = 1.934281258646232E+09 Y = 2.363875269155456E+09 Z =-1.459962028556645E+07
 VX=-1.343129515613241E+01 VY= 3.253685313773045E+01 VZ= 8.438740333574835E-02
 LT= 1.018849315027638E+04 RG= 3.054433404837518E+09 RR= 1.667475475610673E+01
